ONEWEB-0392             
1 50472U 21132D   25327.29355932  .00000143  00000+0  33642-3 0  9992
2 50472  87.9134  46.7767 0001573 115.7644 244.3650 13.17650476191008
ONEWEB-0393             
1 50473U 21132E   25327.26670655  .00000032  00000+0  48490-4 0  9997
2 50473  87.9137  46.8040 0001639 108.1985 251.9325 13.17650241190994
ONEWEB-0394             
1 50474U 21132F   25327.16901045  .00000055  00000+0  10572-3 0  9991
2 50474  87.9203  16.3575 0001753 103.2068 256.9259 13.18684909194443
ONEWEB-0395             
1 50475U 21132G   25327.31835306  .00000190  00000+0  50070-3 0  9992
2 50475  87.8861  62.0725 0001548  99.6179 260.5123 13.11418401188732
ONEWEB-0396             
1 50476U 21132H   25327.16240764 -.00000120  00000+0 -33668-3 0  9993
2 50476  87.9202  16.3711 0001808 101.1559 258.9777 13.18686178194480
ONEWEB-0397             
1 50477U 21132J   25327.17726561  .00000116  00000+0  26219-3 0  9996
2 50477  87.9201  16.3686 0001868 105.9468 254.1870 13.18685265194464
ONEWEB-0398             
1 50478U 21132K   25327.28613275 -.00000307  00000+0 -90304-3 0  9996
2 50478  87.8872  62.0502 0001619  96.2795 263.8517 13.11415215188627
ONEWEB-0399             
1 50479U 21132L   25327.27258095  .00000361  00000+0  98415-3 0  9990
2 50479  87.8862  62.0687 0001543 123.3585 236.7691 13.11414992188618
ONEWEB-0400             
1 50480U 21132M   25327.15581512  .00000142  00000+0  32836-3 0  9994
2 50480  87.9202  16.3628 0001843  95.5126 264.6217 13.18685092194451
ONEWEB-0401             
1 50481U 21132N   25327.20033997  .00000039  00000+0  66266-4 0  9990
2 50481  87.9200  16.3509 0001998 104.6949 255.4405 13.18689360194464
ONEWEB-0402             
1 50482U 21132P   25327.16405794  .00000108  00000+0  24136-3 0  9990
2 50482  87.9201  16.3506 0002352 109.3873 250.7513 13.18684354194484
ONEWEB-0403             
1 50483U 21132Q   25327.18879650 -.00000314  00000+0 -82943-3 0  9990
2 50483  87.9201  16.3667 0001743 100.6978 259.4350 13.18685496194445
ONEWEB-0404             
1 50484U 21132R   25327.33022749  .00002715  00000+0  76227-2 0  9999
2 50484  87.8867  62.0667 0001691 107.6244 252.5069 13.11406393188710
ONEWEB-0405             
1 50485U 21132S   25327.20364211  .00000000  00000+0 -33698-4 0  9992
2 50485  87.9203  16.3482 0001964 108.4285 251.7061 13.18688598194840
ONEWEB-0406             
1 50486U 21132T   25327.19375117  .00000031  00000+0  45029-4 0  9992
2 50486  87.9204  16.3747 0001388  93.0858 267.0433 13.18684202194471
ONEWEB-0407             
1 50487U 21132U   25327.18714751 -.00000193  00000+0 -52188-3 0  9997
2 50487  87.9202  16.3595 0002026  99.2597 260.8764 13.18686804194411
ONEWEB-0409             
1 50488U 21132V   25327.25224064  .00000558  00000+0  15371-2 0  9994
2 50488  87.8878  62.0472 0001390 104.6843 255.4439 13.11418590188599
