[{"OBJECT_NAME":"ONEWEB-0392","OBJECT_ID":"2021-132D","EPOCH":"2025-11-23T07:02:43.525248","MEAN_MOTION":13.17650476,"ECCENTRICITY":0.0001573,"INCLINATION":87.9134,"RA_OF_ASC_NODE":46.7767,"ARG_OF_PERICENTER":115.7644,"MEAN_ANOMALY":244.365,"EPHEMERIS_TYPE":0,"CLASSIFICATION_TYPE":"U","NORAD_CAT_ID":50472,"ELEMENT_SET_NO":999,"REV_AT_EPOCH":19100,"BSTAR":0.00033642,"MEAN_MOTION_DOT":1.43e-6,"MEAN_MOTION_DDOT":0},{"OBJECT_NAME":"ONEWEB-0393","OBJECT_ID":"2021-132E","EPOCH":"2025-11-23T06:24:03.445920","MEAN_MOTION":13.17650241,"ECCENTRICITY":0.0001639,"INCLINATION":87.9137,"RA_OF_ASC_NODE":46.804,"ARG_OF_PERICENTER":108.1985,"MEAN_ANOMALY":251.9325,"EPHEMERIS_TYPE":0,"CLASSIFICATION_TYPE":"U","NORAD_CAT_ID":50473,"ELEMENT_SET_NO":999,"REV_AT_EPOCH":19099,"BSTAR":4.849e-5,"MEAN_MOTION_DOT":3.2e-7,"MEAN_MOTION_DDOT":0},{"OBJECT_NAME":"ONEWEB-0394","OBJECT_ID":"2021-132F","EPOCH":"2025-11-23T04:03:22.502880","MEAN_MOTION":13.18684909,"ECCENTRICITY":0.0001753,"INCLINATION":87.9203,"RA_OF_ASC_NODE":16.3575,"ARG_OF_PERICENTER":103.2068,"MEAN_ANOMALY":256.9259,"EPHEMERIS_TYPE":0,"CLASSIFICATION_TYPE":"U","NORAD_CAT_ID":50474,"ELEMENT_SET_NO":999,"REV_AT_EPOCH":19444,"BSTAR":0.00010572,"MEAN_MOTION_DOT":5.5e-7,"MEAN_MOTION_DDOT":0},{"OBJECT_NAME":"ONEWEB-0395","OBJECT_ID":"2021-132G","EPOCH":"2025-11-23T07:38:25.704384","MEAN_MOTION":13.11418401,"ECCENTRICITY":0.0001548,"INCLINATION":87.8861,"RA_OF_ASC_NODE":62.0725,"ARG_OF_PERICENTER":99.6179,"MEAN_ANOMALY":260.5123,"EPHEMERIS_TYPE":0,"CLASSIFICATION_TYPE":"U","NORAD_CAT_ID":50475,"ELEMENT_SET_NO":999,"REV_AT_EPOCH":18873,"BSTAR":0.0005007,"MEAN_MOTION_DOT":1.9e-6,"MEAN_MOTION_DDOT":0},{"OBJECT_NAME":"ONEWEB-0396","OBJECT_ID":"2021-132H","EPOCH":"2025-11-23T03:53:52.020096","MEAN_MOTION":13.18686178,"ECCENTRICITY":0.0001808,"INCLINATION":87.9202,"RA_OF_ASC_NODE":16.3711,"ARG_OF_PERICENTER":101.1559,"MEAN_ANOMALY":258.9777,"EPHEMERIS_TYPE":0,"CLASSIFICATION_TYPE":"U","NORAD_CAT_ID":50476,"ELEMENT_SET_NO":999,"REV_AT_EPOCH":19448,"BSTAR":-0.00033668,"MEAN_MOTION_DOT":-1.2e-6,"MEAN_MOTION_DDOT":0},{"OBJECT_NAME":"ONEWEB-0397","OBJECT_ID":"2021-132J","EPOCH":"2025-11-23T04:15:15.748704","MEAN_MOTION":13.18685265,"ECCENTRICITY":0.0001868,"INCLINATION":87.9201,"RA_OF_ASC_NODE":16.3686,"ARG_OF_PERICENTER":105.9468,"MEAN_ANOMALY":254.187,"EPHEMERIS_TYPE":0,"CLASSIFICATION_TYPE":"U","NORAD_CAT_ID":50477,"ELEMENT_SET_NO":999,"REV_AT_EPOCH":19446,"BSTAR":0.00026219,"MEAN_MOTION_DOT":1.16e-6,"MEAN_MOTION_DDOT":0},{"OBJECT_NAME":"ONEWEB-0398","OBJECT_ID":"2021-132K","EPOCH":"2025-11-23T06:52:01.869600","MEAN_MOTION":13.11415215,"ECCENTRICITY":0.0001619,"INCLINATION":87.8872,"RA_OF_ASC_NODE":62.0502,"ARG_OF_PERICENTER":96.2795,"MEAN_ANOMALY":263.8517,"EPHEMERIS_TYPE":0,"CLASSIFICATION_TYPE":"U","NORAD_CAT_ID":50478,"ELEMENT_SET_NO":999,"REV_AT_EPOCH":18862,"BSTAR":-0.00090304,"MEAN_MOTION_DOT":-3.07e-6,"MEAN_MOTION_DDOT":0},{"OBJECT_NAME":"ONEWEB-0399","OBJECT_ID":"2021-132L","EPOCH":"2025-11-23T06:32:30.994080","MEAN_MOTION":13.11414992,"ECCENTRICITY":0.0001543,"INCLINATION":87.8862,"RA_OF_ASC_NODE":62.0687,"ARG_OF_PERICENTER":123.3585,"MEAN_ANOMALY":236.7691,"EPHEMERIS_TYPE":0,"CLASSIFICATION_TYPE":"U","NORAD_CAT_ID":50479,"ELEMENT_SET_NO":999,"REV_AT_EPOCH":18861,"BSTAR":0.00098415,"MEAN_MOTION_DOT":3.61e-6,"MEAN_MOTION_DDOT":0},{"OBJECT_NAME":"ONEWEB-0400","OBJECT_ID":"2021-132M","EPOCH":"2025-11-23T03:44:22.426368","MEAN_MOTION":13.18685092,"ECCENTRICITY":0.0001843,"INCLINATION":87.9202,"RA_OF_ASC_NODE":16.3628,"ARG_OF_PERICENTER":95.5126,"MEAN_ANOMALY":264.6217,"EPHEMERIS_TYPE":0,"CLASSIFICATION_TYPE":"U","NORAD_CAT_ID":50480,"ELEMENT_SET_NO":999,"REV_AT_EPOCH":19445,"BSTAR":0.00032836,"MEAN_MOTION_DOT":1.42e-6,"MEAN_MOTION_DDOT":0},{"OBJECT_NAME":"ONEWEB-0401","OBJECT_ID":"2021-132N","EPOCH":"2025-11-23T04:48:29.373408","MEAN_MOTION":13.1868936,"ECCENTRICITY":0.0001998,"INCLINATION":87.92,"RA_OF_ASC_NODE":16.3509,"ARG_OF_PERICENTER":104.6949,"MEAN_ANOMALY":255.4405,"EPHEMERIS_TYPE":0,"CLASSIFICATION_TYPE":"U","NORAD_CAT_ID":50481,"ELEMENT_SET_NO":999,"REV_AT_EPOCH":19446,"BSTAR":6.6266e-5,"MEAN_MOTION_DOT":3.9e-7,"MEAN_MOTION_DDOT":0},{"OBJECT_NAME":"ONEWEB-0402","OBJECT_ID":"2021-132P","EPOCH":"2025-11-23T03:56:14.606016","MEAN_MOTION":13.18684354,"ECCENTRICITY":0.0002352,"INCLINATION":87.9201,"RA_OF_ASC_NODE":16.3506,"ARG_OF_PERICENTER":109.3873,"MEAN_ANOMALY":250.7513,"EPHEMERIS_TYPE":0,"CLASSIFICATION_TYPE":"U","NORAD_CAT_ID":50482,"ELEMENT_SET_NO":999,"REV_AT_EPOCH":19448,"BSTAR":0.00024136,"MEAN_MOTION_DOT":1.08e-6,"MEAN_MOTION_DDOT":0},{"OBJECT_NAME":"ONEWEB-0403","OBJECT_ID":"2021-132Q","EPOCH":"2025-11-23T04:31:52.017600","MEAN_MOTION":13.18685496,"ECCENTRICITY":0.0001743,"INCLINATION":87.9201,"RA_OF_ASC_NODE":16.3667,"ARG_OF_PERICENTER":100.6978,"MEAN_ANOMALY":259.435,"EPHEMERIS_TYPE":0,"CLASSIFICATION_TYPE":"U","NORAD_CAT_ID":50483,"ELEMENT_SET_NO":999,"REV_AT_EPOCH":19444,"BSTAR":-0.00082943,"MEAN_MOTION_DOT":-3.14e-6,"MEAN_MOTION_DDOT":0},{"OBJECT_NAME":"ONEWEB-0404","OBJECT_ID":"2021-132R","EPOCH":"2025-11-23T07:55:31.655136","MEAN_MOTION":13.11406393,"ECCENTRICITY":0.0001691,"INCLINATION":87.8867,"RA_OF_ASC_NODE":62.0667,"ARG_OF_PERICENTER":107.6244,"MEAN_ANOMALY":252.5069,"EPHEMERIS_TYPE":0,"CLASSIFICATION_TYPE":"U","NORAD_CAT_ID":50484,"ELEMENT_SET_NO":999,"REV_AT_EPOCH":18871,"BSTAR":0.0076227,"MEAN_MOTION_DOT":2.715e-5,"MEAN_MOTION_DDOT":0},{"OBJECT_NAME":"ONEWEB-0405","OBJECT_ID":"2021-132S","EPOCH":"2025-11-23T04:53:14.678304","MEAN_MOTION":13.18688598,"ECCENTRICITY":0.0001964,"INCLINATION":87.9203,"RA_OF_ASC_NODE":16.3482,"ARG_OF_PERICENTER":108.4285,"MEAN_ANOMALY":251.7061,"EPHEMERIS_TYPE":0,"CLASSIFICATION_TYPE":"U","NORAD_CAT_ID":50485,"ELEMENT_SET_NO":999,"REV_AT_EPOCH":19484,"BSTAR":-3.3698e-5,"MEAN_MOTION_DOT":0,"MEAN_MOTION_DDOT":0},{"OBJECT_NAME":"ONEWEB-0406","OBJECT_ID":"2021-132T","EPOCH":"2025-11-23T04:39:00.101088","MEAN_MOTION":13.18684202,"ECCENTRICITY":0.0001388,"INCLINATION":87.9204,"RA_OF_ASC_NODE":16.3747,"ARG_OF_PERICENTER":93.0858,"MEAN_ANOMALY":267.0433,"EPHEMERIS_TYPE":0,"CLASSIFICATION_TYPE":"U","NORAD_CAT_ID":50486,"ELEMENT_SET_NO":999,"REV_AT_EPOCH":19447,"BSTAR":4.5029e-5,"MEAN_MOTION_DOT":3.1e-7,"MEAN_MOTION_DDOT":0},{"OBJECT_NAME":"ONEWEB-0407","OBJECT_ID":"2021-132U","EPOCH":"2025-11-23T04:29:29.544864","MEAN_MOTION":13.18686804,"ECCENTRICITY":0.0002026,"INCLINATION":87.9202,"RA_OF_ASC_NODE":16.3595,"ARG_OF_PERICENTER":99.2597,"MEAN_ANOMALY":260.8764,"EPHEMERIS_TYPE":0,"CLASSIFICATION_TYPE":"U","NORAD_CAT_ID":50487,"ELEMENT_SET_NO":999,"REV_AT_EPOCH":19441,"BSTAR":-0.00052188,"MEAN_MOTION_DOT":-1.93e-6,"MEAN_MOTION_DDOT":0},{"OBJECT_NAME":"ONEWEB-0409","OBJECT_ID":"2021-132V","EPOCH":"2025-11-23T06:03:13.591296","MEAN_MOTION":13.1141859,"ECCENTRICITY":0.000139,"INCLINATION":87.8878,"RA_OF_ASC_NODE":62.0472,"ARG_OF_PERICENTER":104.6843,"MEAN_ANOMALY":255.4439,"EPHEMERIS_TYPE":0,"CLASSIFICATION_TYPE":"U","NORAD_CAT_ID":50488,"ELEMENT_SET_NO":999,"REV_AT_EPOCH":18859,"BSTAR":0.0015371,"MEAN_MOTION_DOT":5.58e-6,"MEAN_MOTION_DDOT":0}]
